STARLINK-35347          
1 65907U 25224AB  25300.83334491 -.01975087  00000+0 -28079-1 0  9992
2 65907  53.1602 270.7241 0001336 108.9365 165.4710 15.59247199  4509
STARLINK-35329          
1 65908U 25224AC  25300.83334491 -.01978583  00000+0 -28137-1 0  9992
2 65908  53.1598 270.7318 0001233 107.4714 163.1061 15.59247646  4519
STARLINK-35387          
1 65909U 25224AD  25300.83334491 -.01979414  00000+0 -28150-1 0  9992
2 65909  53.1597 270.7198 0001193 110.4277 165.9006 15.59248053  4486
STARLINK-35523          
1 65910U 25225A   25300.80667141 -.00822747  00000+0 -64928-2 0  9992
2 65910  53.1605  66.4378 0001381 164.3076 195.7986 15.73066205  4012
STARLINK-35160          
1 65911U 25225B   25300.74280003 -.00688008  00000+0 -52839-2 0  9992
2 65911  53.1601  66.7509 0001982  58.3162 301.8050 15.73314318  4005
STARLINK-35508          
1 65912U 25225C   25300.74246159 -.00698596  00000+0 -53736-2 0  9997
2 65912  53.1608  66.7475 0001874  54.5382 305.5812 15.73308634  4008
STARLINK-35472          
1 65913U 25225D   25300.74212045 -.00683004  00000+0 -52388-2 0  9995
2 65913  53.1604  66.7453 0001841  46.5940 313.5233 15.73331108  4004
STARLINK-35524          
1 65914U 25225E   25300.74178208 -.00671647  00000+0 -51439-2 0  9994
2 65914  53.1601  66.7437 0001669  54.5472 305.5703 15.73336302  4005
STARLINK-35539          
1 65915U 25225F   25300.83334491 -.02442452  00000+0 -30105-1 0  9991
2 65915  53.1599  66.3689 0001405  55.3793  65.3496 15.63086872  3990
STARLINK-35521          
1 65916U 25225G   25300.74110396 -.00651634  00000+0 -49770-2 0  9999
2 65916  53.1610  66.7375 0001223  64.3500 295.7646 15.73347214  4005
STARLINK-35478          
1 65917U 25225H   25300.86747536  .00015352  00000+0  11260-3 0  9998
2 65917  53.1605  66.1029 0002208  13.0377 347.0700 15.73407086  4025
STARLINK-35516          
1 65918U 25225J   25300.67723455 -.00585709  00000+0 -43968-2 0  9991
2 65918  53.1598  67.0489 0001508  70.0753 290.0429 15.73563024  3995
