CCSDS_OMM_VERS = 2.0
CREATION_DATE  = 
ORIGINATOR     = 

OBJECT_NAME    = STARLINK-35347
OBJECT_ID      = 2025-224AB
CENTER_NAME    = EARTH
REF_FRAME      = TEME
TIME_SYSTEM    = UTC
MEAN_ELEMENT_THEORY = SGP/SGP4

EPOCH          = 2025-10-27T20:00:01.000224
MEAN_MOTION    = 15.59247199
ECCENTRICITY   = .0001336
INCLINATION    = 53.1602
RA_OF_ASC_NODE = 270.7241
ARG_OF_PERICENTER = 108.9365
MEAN_ANOMALY   = 165.4710

EPHEMERIS_TYPE = 0
CLASSIFICATION_TYPE = U
NORAD_CAT_ID   = 65907
ELEMENT_SET_NO = 999
REV_AT_EPOCH   = 450
BSTAR          = -.28079E-1
MEAN_MOTION_DOT = -.1975087E-1
MEAN_MOTION_DDOT = 0

CCSDS_OMM_VERS = 2.0
CREATION_DATE  = 
ORIGINATOR     = 

OBJECT_NAME    = STARLINK-35329
OBJECT_ID      = 2025-224AC
CENTER_NAME    = EARTH
REF_FRAME      = TEME
TIME_SYSTEM    = UTC
MEAN_ELEMENT_THEORY = SGP/SGP4

EPOCH          = 2025-10-27T20:00:01.000224
MEAN_MOTION    = 15.59247646
ECCENTRICITY   = .0001233
INCLINATION    = 53.1598
RA_OF_ASC_NODE = 270.7318
ARG_OF_PERICENTER = 107.4714
MEAN_ANOMALY   = 163.1061

EPHEMERIS_TYPE = 0
CLASSIFICATION_TYPE = U
NORAD_CAT_ID   = 65908
ELEMENT_SET_NO = 999
REV_AT_EPOCH   = 451
BSTAR          = -.28137E-1
MEAN_MOTION_DOT = -.1978583E-1
MEAN_MOTION_DDOT = 0

CCSDS_OMM_VERS = 2.0
CREATION_DATE  = 
ORIGINATOR     = 

OBJECT_NAME    = STARLINK-35387
OBJECT_ID      = 2025-224AD
CENTER_NAME    = EARTH
REF_FRAME      = TEME
TIME_SYSTEM    = UTC
MEAN_ELEMENT_THEORY = SGP/SGP4

EPOCH          = 2025-10-27T20:00:01.000224
MEAN_MOTION    = 15.59248053
ECCENTRICITY   = .0001193
INCLINATION    = 53.1597
RA_OF_ASC_NODE = 270.7198
ARG_OF_PERICENTER = 110.4277
MEAN_ANOMALY   = 165.9006

EPHEMERIS_TYPE = 0
CLASSIFICATION_TYPE = U
NORAD_CAT_ID   = 65909
ELEMENT_SET_NO = 999
REV_AT_EPOCH   = 448
BSTAR          = -.2815E-1
MEAN_MOTION_DOT = -.1979414E-1
MEAN_MOTION_DDOT = 0

CCSDS_OMM_VERS = 2.0
CREATION_DATE  = 
ORIGINATOR     = 

OBJECT_NAME    = STARLINK-35523
OBJECT_ID      = 2025-225A
CENTER_NAME    = EARTH
REF_FRAME      = TEME
TIME_SYSTEM    = UTC
MEAN_ELEMENT_THEORY = SGP/SGP4

EPOCH          = 2025-10-27T19:21:36.409824
MEAN_MOTION    = 15.73066205
ECCENTRICITY   = .0001381
INCLINATION    = 53.1605
RA_OF_ASC_NODE = 66.4378
ARG_OF_PERICENTER = 164.3076
MEAN_ANOMALY   = 195.7986

EPHEMERIS_TYPE = 0
CLASSIFICATION_TYPE = U
NORAD_CAT_ID   = 65910
ELEMENT_SET_NO = 999
REV_AT_EPOCH   = 401
BSTAR          = -.64928E-2
MEAN_MOTION_DOT = -.822747E-2
MEAN_MOTION_DDOT = 0

CCSDS_OMM_VERS = 2.0
CREATION_DATE  = 
ORIGINATOR     = 

OBJECT_NAME    = STARLINK-35160
OBJECT_ID      = 2025-225B
CENTER_NAME    = EARTH
REF_FRAME      = TEME
TIME_SYSTEM    = UTC
MEAN_ELEMENT_THEORY = SGP/SGP4

EPOCH          = 2025-10-27T17:49:37.922592
MEAN_MOTION    = 15.73314318
ECCENTRICITY   = .0001982
INCLINATION    = 53.1601
RA_OF_ASC_NODE = 66.7509
ARG_OF_PERICENTER = 58.3162
MEAN_ANOMALY   = 301.8050

EPHEMERIS_TYPE = 0
CLASSIFICATION_TYPE = U
NORAD_CAT_ID   = 65911
ELEMENT_SET_NO = 999
REV_AT_EPOCH   = 400
BSTAR          = -.52839E-2
MEAN_MOTION_DOT = -.688008E-2
MEAN_MOTION_DDOT = 0

CCSDS_OMM_VERS = 2.0
CREATION_DATE  = 
ORIGINATOR     = 

OBJECT_NAME    = STARLINK-35508
OBJECT_ID      = 2025-225C
CENTER_NAME    = EARTH
REF_FRAME      = TEME
TIME_SYSTEM    = UTC
MEAN_ELEMENT_THEORY = SGP/SGP4

EPOCH          = 2025-10-27T17:49:08.681376
MEAN_MOTION    = 15.73308634
ECCENTRICITY   = .0001874
INCLINATION    = 53.1608
RA_OF_ASC_NODE = 66.7475
ARG_OF_PERICENTER = 54.5382
MEAN_ANOMALY   = 305.5812

EPHEMERIS_TYPE = 0
CLASSIFICATION_TYPE = U
NORAD_CAT_ID   = 65912
ELEMENT_SET_NO = 999
REV_AT_EPOCH   = 400
BSTAR          = -.53736E-2
MEAN_MOTION_DOT = -.698596E-2
MEAN_MOTION_DDOT = 0

CCSDS_OMM_VERS = 2.0
CREATION_DATE  = 
ORIGINATOR     = 

OBJECT_NAME    = STARLINK-35472
OBJECT_ID      = 2025-225D
CENTER_NAME    = EARTH
REF_FRAME      = TEME
TIME_SYSTEM    = UTC
MEAN_ELEMENT_THEORY = SGP/SGP4

EPOCH          = 2025-10-27T17:48:39.206880
MEAN_MOTION    = 15.73331108
ECCENTRICITY   = .0001841
INCLINATION    = 53.1604
RA_OF_ASC_NODE = 66.7453
ARG_OF_PERICENTER = 46.5940
MEAN_ANOMALY   = 313.5233

EPHEMERIS_TYPE = 0
CLASSIFICATION_TYPE = U
NORAD_CAT_ID   = 65913
ELEMENT_SET_NO = 999
REV_AT_EPOCH   = 400
BSTAR          = -.52388E-2
MEAN_MOTION_DOT = -.683004E-2
MEAN_MOTION_DDOT = 0

CCSDS_OMM_VERS = 2.0
CREATION_DATE  = 
ORIGINATOR     = 

OBJECT_NAME    = STARLINK-35524
OBJECT_ID      = 2025-225E
CENTER_NAME    = EARTH
REF_FRAME      = TEME
TIME_SYSTEM    = UTC
MEAN_ELEMENT_THEORY = SGP/SGP4

EPOCH          = 2025-10-27T17:48:09.971712
MEAN_MOTION    = 15.73336302
ECCENTRICITY   = .0001669
INCLINATION    = 53.1601
RA_OF_ASC_NODE = 66.7437
ARG_OF_PERICENTER = 54.5472
MEAN_ANOMALY   = 305.5703

EPHEMERIS_TYPE = 0
CLASSIFICATION_TYPE = U
NORAD_CAT_ID   = 65914
ELEMENT_SET_NO = 999
REV_AT_EPOCH   = 400
BSTAR          = -.51439E-2
MEAN_MOTION_DOT = -.671647E-2
MEAN_MOTION_DDOT = 0

CCSDS_OMM_VERS = 2.0
CREATION_DATE  = 
ORIGINATOR     = 

OBJECT_NAME    = STARLINK-35539
OBJECT_ID      = 2025-225F
CENTER_NAME    = EARTH
REF_FRAME      = TEME
TIME_SYSTEM    = UTC
MEAN_ELEMENT_THEORY = SGP/SGP4

EPOCH          = 2025-10-27T20:00:01.000224
MEAN_MOTION    = 15.63086872
ECCENTRICITY   = .0001405
INCLINATION    = 53.1599
RA_OF_ASC_NODE = 66.3689
ARG_OF_PERICENTER = 55.3793
MEAN_ANOMALY   = 65.3496

EPHEMERIS_TYPE = 0
CLASSIFICATION_TYPE = U
NORAD_CAT_ID   = 65915
ELEMENT_SET_NO = 999
REV_AT_EPOCH   = 399
BSTAR          = -.30105E-1
MEAN_MOTION_DOT = -.2442452E-1
MEAN_MOTION_DDOT = 0

CCSDS_OMM_VERS = 2.0
CREATION_DATE  = 
ORIGINATOR     = 

OBJECT_NAME    = STARLINK-35521
OBJECT_ID      = 2025-225G
CENTER_NAME    = EARTH
REF_FRAME      = TEME
TIME_SYSTEM    = UTC
MEAN_ELEMENT_THEORY = SGP/SGP4

EPOCH          = 2025-10-27T17:47:11.382144
MEAN_MOTION    = 15.73347214
ECCENTRICITY   = .0001223
INCLINATION    = 53.1610
RA_OF_ASC_NODE = 66.7375
ARG_OF_PERICENTER = 64.3500
MEAN_ANOMALY   = 295.7646

EPHEMERIS_TYPE = 0
CLASSIFICATION_TYPE = U
NORAD_CAT_ID   = 65916
ELEMENT_SET_NO = 999
REV_AT_EPOCH   = 400
BSTAR          = -.4977E-2
MEAN_MOTION_DOT = -.651634E-2
MEAN_MOTION_DDOT = 0

CCSDS_OMM_VERS = 2.0
CREATION_DATE  = 
ORIGINATOR     = 

OBJECT_NAME    = STARLINK-35478
OBJECT_ID      = 2025-225H
CENTER_NAME    = EARTH
REF_FRAME      = TEME
TIME_SYSTEM    = UTC
MEAN_ELEMENT_THEORY = SGP/SGP4

EPOCH          = 2025-10-27T20:49:09.871104
MEAN_MOTION    = 15.73407086
ECCENTRICITY   = .0002208
INCLINATION    = 53.1605
RA_OF_ASC_NODE = 66.1029
ARG_OF_PERICENTER = 13.0377
MEAN_ANOMALY   = 347.0700

EPHEMERIS_TYPE = 0
CLASSIFICATION_TYPE = U
NORAD_CAT_ID   = 65917
ELEMENT_SET_NO = 999
REV_AT_EPOCH   = 402
BSTAR          = .1126E-3
MEAN_MOTION_DOT = .15352E-3
MEAN_MOTION_DDOT = 0

CCSDS_OMM_VERS = 2.0
CREATION_DATE  = 
ORIGINATOR     = 

OBJECT_NAME    = STARLINK-35516
OBJECT_ID      = 2025-225J
CENTER_NAME    = EARTH
REF_FRAME      = TEME
TIME_SYSTEM    = UTC
MEAN_ELEMENT_THEORY = SGP/SGP4

EPOCH          = 2025-10-27T16:15:13.065120
MEAN_MOTION    = 15.73563024
ECCENTRICITY   = .0001508
INCLINATION    = 53.1598
RA_OF_ASC_NODE = 67.0489
ARG_OF_PERICENTER = 70.0753
MEAN_ANOMALY   = 290.0429

EPHEMERIS_TYPE = 0
CLASSIFICATION_TYPE = U
NORAD_CAT_ID   = 65918
ELEMENT_SET_NO = 999
REV_AT_EPOCH   = 399
BSTAR          = -.43968E-2
MEAN_MOTION_DOT = -.585709E-2
MEAN_MOTION_DDOT = 0

